     3.04           N: GNSS NAV DATA    M: Mixed            RINEX VERSION / TYPE
CONVBIN 2.4.3                           20251206 202655 UTC PGM / RUN BY / DATE 
format: u-blox UBX                                          COMMENT             
log: f9t_ubx_20251206T195914Z.ubx                           COMMENT             
GPSA    .2980D-07   .1490D-07  -.1192D-06   .5960D-07       IONOSPHERIC CORR    
GPSB    .1516D+06  -.1966D+06   .0000D+00   .2621D+06       IONOSPHERIC CORR    
BDSA    .3632D-07   .4470D-07  -.8345D-06   .1371D-05       IONOSPHERIC CORR    
BDSB    .1249D+06  -.2621D+06   .5898D+06   .3277D+06       IONOSPHERIC CORR    
GPUT   .0000000000D+00  .266453526D-14 319488 2396          TIME SYSTEM CORR    
GLUT   .9999999995D+00  .000000000D+00      0    0          TIME SYSTEM CORR    
BDUT   .0000000000D+00  .976996262D-14 162294 1040          TIME SYSTEM CORR    
                                                            END OF HEADER       
C33 2025 12 08 20 00 00 -.974514638074D-03 -.198774330329D-11  .000000000000D+00
      .100000000000D+01 -.144281250000D+03  .330585198772D-08  .363010241839D+00
     -.700354576111D-05  .313149765134D-03  .391062349081D-05  .528263864899D+04
      .158400000000D+06 -.284053385258D-07 -.123054926874D+00  .605359673500D-07
      .985741946052D+00  .294250000000D+03  .234944191489D+00 -.680956936018D-08
     -.129648257513D-09  .000000000000D+00  .104000000000D+04  .000000000000D+00
      .200000000000D+01  .000000000000D+00 -.429000000000D-07 -.429000000000D-07
      .161040000000D+06  .100000000000D+01
C28 2025 12 08 20 00 00  .456980196759D-03  .454392079519D-11  .000000000000D+00
      .100000000000D+01  .108734375000D+03  .369801117987D-08 -.305627721835D+01
      .536860898137D-05  .247619929723D-03  .104457139969D-04  .528264203072D+04
      .158400000000D+06 -.353902578354D-07 -.221814704488D+01 -.884756445885D-08
      .951095390929D+00  .143140625000D+03 -.140110925792D+01 -.673849497108D-08
     -.268939773850D-09  .000000000000D+00  .104000000000D+04  .000000000000D+00
      .200000000000D+01  .000000000000D+00 -.250000000000D-08 -.250000000000D-08
      .161070000000D+06  .100000000000D+01
C45 2025 12 08 20 00 00 -.588236609474D-03 -.176623160542D-10  .000000000000D+00
      .100000000000D+01  .238750000000D+02  .447447209401D-08  .253375578293D+00
      .110408291221D-05  .722242402844D-03  .663055106997D-05  .528265023422D+04
      .158400000000D+06 -.558793544769D-08  .197430998358D+01  .321306288242D-07
      .949003207416D+00  .223593750000D+03  .681544826289D+00 -.698207654580D-08
      .339299847486D-09  .000000000000D+00  .104000000000D+04  .000000000000D+00
      .200000000000D+01  .000000000000D+00  .212000000000D-07  .212000000000D-07
      .161070000000D+06  .100000000000D+01
G10 2025 12 08 22 00 00 -.571385491639D-03 -.420641299570D-11  .000000000000D+00
      .100000000000D+02 -.294687500000D+02  .389230498727D-08 -.281608078523D+01
     -.156275928020D-05  .109132800717D-01  .187195837498D-05  .515364909744D+04
      .165600000000D+06  .242143869400D-07 -.659351419833D+00 -.117346644402D-06
      .991952865698D+00  .359875000000D+03 -.228487863091D+01 -.793568769610D-08
      .246438836595D-10  .100000000000D+01  .239600000000D+04  .000000000000D+00
      .200000000000D+01  .000000000000D+00  .232830643654D-08  .100000000000D+02
      .161106000000D+06  .400000000000D+01
G15 2025 12 08 22 00 00  .365338288248D-03  .363797880709D-11  .000000000000D+00
      .550000000000D+02 -.121093750000D+03  .487377444084D-08  .456028100224D+00
     -.632181763649D-05  .166350986110D-01  .741332769394D-05  .515366633224D+04
      .165600000000D+06 -.230967998505D-06  .208905468288D+00 -.894069671631D-07
      .941953049703D+00  .231875000000D+03  .148692886008D+01 -.858178603726D-08
     -.154649298907D-09  .100000000000D+01  .239600000000D+04  .000000000000D+00
      .200000000000D+01  .000000000000D+00 -.107102096081D-07  .550000000000D+02
      .161106000000D+06  .400000000000D+01
C38 2025 12 08 20 00 00  .262322369963D-03  .196909155648D-11  .000000000000D+00
      .100000000000D+01 -.246000000000D+03  .125290933156D-08 -.232774893321D+01
     -.796187669039D-05  .256984971929D-02 -.120629556477D-04  .649292505455D+04
      .158400000000D+06 -.293832272291D-06 -.634502487907D+00 -.177882611752D-06
      .101998137400D+01  .634875000000D+03 -.229462395625D+01 -.281476010320D-08
     -.137505727665D-09  .000000000000D+00  .104000000000D+04  .000000000000D+00
      .200000000000D+01  .000000000000D+00  .440000000000D-08  .440000000000D-08
      .161190000000D+06  .100000000000D+01
C41 2025 12 08 20 00 00 -.952566158958D-03  .240518716055D-11  .000000000000D+00
      .100000000000D+01 -.126375000000D+03  .330192325264D-08  .111433536520D+01
     -.617280602455D-05  .157093966845D-02  .372622162104D-05  .528263686752D+04
      .158400000000D+06  .100582838058D-06 -.120481832449D+00  .540167093277D-07
      .984560731866D+00  .296625000000D+03 -.126450553573D+01 -.681492672620D-08
     -.108933108930D-09  .000000000000D+00  .104000000000D+04  .000000000000D+00
      .200000000000D+01  .000000000000D+00 -.216000000000D-07 -.216000000000D-07
      .161280000000D+06  .100000000000D+01
R02 2025 12 08 20 45 00  .126184895635D-04  .000000000000D+00  .161550000000D+06
      .156020737305D+05  .537624359131D-01 -.931322574615D-09  .000000000000D+00
      .201889238281D+05 -.275989532471D+00  .279396772385D-08 -.400000000000D+01
      .136440136719D+04  .358046817780D+01  .186264514923D-08  .000000000000D+00
R16 2025 12 08 21 15 00  .426089391112D-04  .000000000000D+00  .162000000000D+06
      .114351401367D+05  .242126750946D+01  .000000000000D+00  .000000000000D+00
     -.129260810547D+05 -.871117591858D+00  .000000000000D+00 -.100000000000D+01
      .187705253906D+05 -.207857799530D+01 -.186264514923D-08  .000000000000D+00
R18 2025 12 08 21 15 00  .236229039729D-03  .181898940355D-11  .162000000000D+06
      .118390195312D+05 -.717606544495D+00  .000000000000D+00  .000000000000D+00
     -.135659638672D+05  .237060737610D+01  .000000000000D+00 -.300000000000D+01
      .180694116211D+05  .225671195984D+01 -.279396772385D-08  .000000000000D+00
R15 2025 12 08 21 15 00  .614151358604D-04  .000000000000D+00  .162000000000D+06
      .235179135742D+05  .411644935608D+00 -.931322574615D-09  .000000000000D+00
     -.922993603516D+04 -.279788970947D+00  .000000000000D+00  .000000000000D+00
      .349601464844D+04 -.352064418793D+01  .000000000000D+00  .000000000000D+00
R24 2025 12 08 21 15 00 -.136571936309D-03 -.181898940355D-11  .162000000000D+06
      .304488232422D+04 -.338779449463D+00  .000000000000D+00  .000000000000D+00
      .201651704102D+05  .207097148895D+01  .465661287308D-08  .200000000000D+01
      .153321699219D+05 -.266223049164D+01  .931322574615D-09  .000000000000D+00
C27 2025 12 08 21 00 00  .566296395846D-03  .496314100928D-11  .000000000000D+00
      .100000000000D+01  .105125000000D+03  .376837125350D-08  .289212814143D+00
      .525079667568D-05  .490542617626D-03  .103609636426D-04  .528262754631D+04
      .162000000000D+06 -.270083546638D-07 -.221787141941D+01  .135041773319D-07
      .951219092356D+00  .144312500000D+03  .138051180877D+01 -.678813989613D-08
     -.251439044874D-09  .000000000000D+00  .104000000000D+04  .000000000000D+00
      .200000000000D+01  .000000000000D+00 -.260000000000D-08 -.260000000000D-08
      .162000000000D+06  .100000000000D+01
C30 2025 12 08 21 00 00  .338057056069D-03  .842792502453D-11  .000000000000D+00
      .100000000000D+01  .921875000000D+02  .394516433193D-08  .360602474712D+00
      .469153746963D-05  .468308920972D-03  .938121229410D-05  .528265260315D+04
      .162000000000D+06 -.139698386192D-08 -.225835868374D+01  .977888703346D-08
      .948918979907D+00  .161718750000D+03  .515485130082D+00 -.682992735103D-08
     -.272511351192D-09  .000000000000D+00  .104000000000D+04  .000000000000D+00
      .200000000000D+01  .000000000000D+00 -.790000000000D-08 -.790000000000D-08
      .162000000000D+06  .100000000000D+01
C36 2025 12 08 21 00 00  .309114810079D-03 -.750510764647D-12  .000000000000D+00
      .100000000000D+01  .171250000000D+02  .447411493627D-08  .279274970688D+01
      .881496816874D-06  .474287779070D-03  .696117058396D-05  .528264627266D+04
      .162000000000D+06 -.400468707085D-07  .196796726672D+01  .330619513988D-07
      .945052578125D+00  .211468750000D+03 -.638702123410D+00 -.700422032532D-08
      .347514475373D-09  .000000000000D+00  .104000000000D+04  .000000000000D+00
      .200000000000D+01  .000000000000D+00 -.190000000000D-07 -.190000000000D-07
      .162000000000D+06  .100000000000D+01
C28 2025 12 08 21 00 00  .456997309811D-03  .461319871192D-11  .000000000000D+00
      .100000000000D+01  .119531250000D+03  .375337062867D-08 -.257198329526D+01
      .581378117204D-05  .248839380220D-03  .104228965938D-04  .528263918877D+04
      .162000000000D+06 -.400468707085D-07 -.221817133078D+01 -.144354999065D-07
      .951094437107D+00  .143703125000D+03 -.139784136810D+01 -.673349476280D-08
     -.265725354242D-09  .000000000000D+00  .104000000000D+04  .000000000000D+00
      .200000000000D+01  .000000000000D+00 -.250000000000D-08 -.250000000000D-08
      .162000000000D+06  .100000000000D+01
C41 2025 12 08 21 00 00 -.952558242716D-03  .231814567542D-11  .000000000000D+00
      .100000000000D+01 -.129609375000D+03  .334263923434D-08  .160207190466D+01
     -.635581091046D-05  .157111510634D-02  .380864366889D-05  .528263632774D+04
      .162000000000D+06  .889413058758D-07 -.120506599652D+00 -.796280801296D-07
      .984559883374D+00  .296515625000D+03 -.126468035152D+01 -.690850205255D-08
     -.660741808263D-10  .000000000000D+00  .104000000000D+04  .000000000000D+00
      .200000000000D+01  .000000000000D+00 -.216000000000D-07 -.216000000000D-07
      .162000000000D+06  .100000000000D+01
